OBJECT_NAME,OBJECT_ID,EPOCH,MEAN_MOTION,ECCENTRICITY,INCLINATION,RA_OF_ASC_NODE,ARG_OF_PERICENTER,MEAN_ANOMALY,EPHEMERIS_TYPE,CLASSIFICATION_TYPE,NORAD_CAT_ID,ELEMENT_SET_NO,REV_AT_EPOCH,BSTAR,MEAN_MOTION_DOT,MEAN_MOTION_DDOT
DUCHIFAT-1,2014-033M,2024-12-31T10:02:07.765152,15.18350900,.0011499,98.0991,2.0657,138.7454,221.4649,0,U,40021,999,57393,.16974E-2,.34985E-3,0
NANOSATC-BR1,2014-033Q,2024-12-31T09:36:50.095584,15.11668900,.0003803,98.0820,348.0874,203.2725,156.8332,0,U,40024,999,57295,.13952E-2,.2373E-3,0
QB50P1,2014-033R,2024-12-31T12:57:59.476608,15.05906920,.0009878,98.0667,334.9370,232.4669,127.5660,0,U,40025,999,57251,.13736E-2,.19968E-3,0
QB50P2,2014-033Y,2024-12-31T20:01:45.882048,15.04226241,.0009018,98.0264,325.4761,168.2118,191.9320,0,U,40032,999,57232,.13245E-2,.18397E-3,0
PERSEUS-M2,2014-033AD,2024-12-31T21:07:43.113504,14.92491894,.0011128,97.9430,298.7630,262.7127,97.2827,0,U,40037,999,57129,.58318E-3,.5935E-4,0
PERSEUS-M1,2014-033AF,2024-12-31T19:03:01.975104,14.92391376,.0010899,97.9197,294.1432,262.4961,97.5019,0,U,40039,999,57113,.62372E-3,.6336E-4,0
POLYITAN-1,2014-033AJ,2024-12-31T16:32:37.009536,15.11381807,.0010602,98.0912,340.5614,175.4266,184.7061,0,U,40042,999,57257,.17699E-2,.29943E-3,0
TIGRISAT,2014-033AK,2024-12-31T21:13:57.387936,14.81404342,.0053387,97.7120,161.6716,19.8727,340.4550,0,U,40043,999,56670,.81612E-3,.6493E-4,0
AEROCUBE 6A,2014-033AM,2024-12-31T21:50:28.011552,14.88680050,.004603,97.6762,173.4310,351.4054,8.6370,0,U,40045,999,56715,.1639E-2,.15572E-3,0
AEROCUBE 6B,2014-033AN,2024-12-31T21:19:39.089568,14.89703756,.0044483,97.6738,172.3186,345.9910,14.0071,0,U,40046,999,56722,.17187E-2,.16735E-3,0
CANX-4,2014-034C,2024-12-31T15:27:25.939008,14.79437493,.0012028,98.3760,209.6642,281.8535,78.1326,0,U,40055,999,56573,.62925E-3,.4647E-4,0
CANX-5,2014-034D,2024-12-31T20:25:03.880704,14.79451101,.0012039,98.3764,209.8931,281.3989,78.5868,0,U,40056,999,55657,.64282E-3,.475E-4,0
UKUBE-1,2014-037F,2024-12-31T06:38:43.953504,15.00452365,.0003271,98.3678,309.3963,94.0291,266.1305,0,U,40074,999,56826,.15977E-2,.20086E-3,0
BRITE-PL2 (HEWELIUSZ),2014-049B,2024-12-31T20:44:09.452256,14.91148914,.001626,97.8868,106.0084,74.3660,285.9351,0,U,40119,999,56201,.64812E-3,.6393E-4,0
AEROCUBE 5C,2015-058B,2024-12-31T20:59:37.726080,14.86257925,.0184947,64.7696,113.2492,249.2149,108.9062,0,U,40965,999,28638,.11644E-2,.13896E-3,0
AEROCUBE 7,2015-058C,2024-12-30T14:00:54.925920,14.88909159,.0178379,64.7663,108.8343,249.3075,108.8836,0,U,40966,999,28630,.13922E-2,.17549E-3,0
FOX-1A (AO-85),2015-058D,2025-01-01T01:54:13.544352,14.85715402,.0182443,64.7767,127.2080,244.7605,113.4498,0,U,40967,999,3435,.12524E-2,.14613E-3,0
SINOD-D 1,2015-058E,2024-12-31T14:13:55.047936,14.88735088,.0174513,64.7772,119.1796,243.9381,114.3677,0,U,40968,999,3715,.15037E-2,.18637E-3,0
SNAP-3 ALICE,2015-058G,2024-12-31T10:15:12.405024,15.09143321,.0128072,64.7677,62.0400,243.1674,115.6305,0,U,40970,999,3540,.23826E-2,.46161E-3,0
LMRST-SAT,2015-058H,2024-12-31T14:14:15.512640,14.85590153,.0184101,64.7768,124.2939,246.2906,111.8794,0,U,40971,999,3428,.11096E-2,.1295E-3,0
SNAP-3 EDDIE,2015-058J,2024-12-31T20:21:05.402880,15.09589924,.0127981,64.7647,53.6530,244.0476,114.7414,0,U,40972,999,3757,.28083E-2,.55219E-3,0
PROPCUBE 3,2015-058K,2024-12-31T19:33:57.391776,14.88021740,.0179738,64.7709,109.3389,247.7802,110.4157,0,U,40973,999,3539,.13049E-2,.16103E-3,0
BISONSAT,2015-058L,2024-12-31T14:15:10.818144,14.99650723,.0150932,64.7666,75.6226,245.9811,112.5446,0,U,40974,999,3527,.20057E-2,.31514E-3,0
SNAP-3 JIMI,2015-058M,2024-12-31T20:41:52.176480,14.92817304,.0167748,64.7690,93.5714,246.9146,111.4209,0,U,40975,999,3447,.17478E-2,.23812E-3,0
PROPCUBE 1 (FLORA),2015-058N,2024-12-31T16:21:47.276352,14.84288629,.0183224,64.7751,140.5899,247.6434,110.5169,0,U,40976,999,3707,.11653E-2,.13088E-3,0
SINOD-D 3,2015-058P,2024-12-31T14:50:37.379616,14.87285044,.0175272,64.7738,131.7838,246.9444,111.3104,0,U,40977,999,3534,.13991E-2,.16678E-3,0
HORYU-4,2016-012D,2024-12-31T15:57:39.132864,15.26864332,.0007399,30.9996,119.4552,187.7533,172.2996,0,U,41340,999,48824,.13485E-2,.36887E-3,0
RAVAN,2016-067B,2024-12-30T18:22:53.235552,15.22862699,.001159,98.0550,196.1972,76.6148,283.6378,0,U,41849,999,44580,.1544E-2,.36295E-3,0
CELTEE 1,2016-067C,2024-12-31T11:15:10.635840,15.11349063,.0000112,98.1045,186.9517,181.9697,178.1531,0,U,41850,999,44517,.84874E-3,.14259E-3,0
OPTICUBE 04,2016-067D,2025-01-01T01:51:17.211456,15.05518209,.0018513,98.0854,180.9074,110.6144,249.7068,0,U,41851,999,44498,.59335E-3,.8506E-4,0
